NORAD_CAT_ID,OBJECT_NAME,OBJECT_TYPE,EPOCH,MEAN_MOTION,ECCENTRICITY,INCLINATION,RA_OF_ASC_NODE,ARG_OF_PERICENTER,MEAN_ANOMALY,BSTAR,MEAN_MOTION_DOT,MEAN_MOTION_DDOT,TLE_LINE0,TLE_LINE1,TLE_LINE2,SEMIMAJOR_AXIS,PERIOD,APOGEE,PERIGEE,DECAYED
54081.0,STARLINK-5165,PAYLOAD,2024-07-05 05:25:54,15.08835891,0.0001279,53.2166,203.5294,92.0314,268.0825,6.2671e-05,7.1e-06,0.0,0 STARLINK-5165,1 54081U 22136AG  24187.22632147  .00000710  00000-0  62671-4 0  9995,2 54081  53.2166 203.5294 0001279  92.0314 268.0825 15.08835891 95009,6917.893,95.438,540.643,538.873,0.0
54081.0,STARLINK-5165,PAYLOAD,2024-07-05 10:12:03,15.08839174,0.0001283,53.2165,202.6373,91.4952,268.6187,6.8422e-05,8.01e-06,0.0,0 STARLINK-5165,1 54081U 22136AG  24187.42503948  .00000801  00000-0  68422-4 0  9994,2 54081  53.2165 202.6373 0001283  91.4952 268.6187 15.08839174 94556,6917.883,95.438,540.635,538.86,0.0
54081.0,STARLINK-5165,PAYLOAD,2024-07-05 18:08:58,15.0885032,0.0001287,53.2166,201.1508,94.8288,265.2851,0.00013528,1.866e-05,0.0,0 STARLINK-5165,1 54081U 22136AG  24187.75622941  .00001866  00000-0  13528-3 0  9993,2 54081  53.2166 201.1508 0001287  94.8288 265.2851 15.08850320 95080,6917.849,95.437,540.604,538.824,0.0
54081.0,STARLINK-5165,PAYLOAD,2024-07-06 05:16:38,15.08863081,0.0001279,53.2167,199.0694,94.0772,266.0367,0.00019913,2.885e-05,0.0,0 STARLINK-5165,1 54081U 22136AG  24188.21989491  .00002885  00000-0  19913-3 0  9997,2 54081  53.2167 199.0694 0001279  94.0772 266.0367 15.08863081 95150,6917.81,95.436,540.56,538.79,0.0
54081.0,STARLINK-5165,PAYLOAD,2024-07-06 10:02:48,15.08860495,0.0001276,53.2166,198.1774,93.8211,266.2927,0.00016511,2.342e-05,0.0,0 STARLINK-5165,1 54081U 22136AG  24188.41861573  .00002342  00000-0  16511-3 0  9998,2 54081  53.2166 198.1774 0001276  93.8211 266.2927 15.08860495 94700,6917.818,95.436,540.565,538.8,0.0
54081.0,STARLINK-5165,PAYLOAD,2024-07-06 17:59:45,15.08836954,0.0001175,53.2167,196.6906,83.8104,276.3022,-4.0332e-05,-9.3e-06,0.0,0 STARLINK-5165,1 54081U 22136AG  24188.74983478 -.00000930  00000-0 -40332-4 0  9995,2 54081  53.2167 196.6906 0001175  83.8104 276.3022 15.08836954 95239,6917.89,95.438,540.568,538.942,0.0
54081.0,STARLINK-5165,PAYLOAD,2024-07-07 05:07:28,15.08823278,0.0001231,53.2164,194.6091,88.0163,272.097,-9.715e-05,-1.833e-05,0.0,0 STARLINK-5165,1 54081U 22136AG  24189.21352827 -.00001833  00000-0 -97150-4 0  9999,2 54081  53.2164 194.6091 0001231  88.0163 272.0970 15.08823278 95302,6917.932,95.439,540.648,538.945,0.0
54081.0,STARLINK-5165,PAYLOAD,2024-07-07 06:42:51,15.08825972,0.0001299,53.2168,194.3104,93.8644,266.2497,-0.00011581,-2.13e-05,0.0,0 STARLINK-5165,1 54081U 22136AG  24189.27976765 -.00002130  00000-0 -11581-3 0  9992,2 54081  53.2168 194.3104 0001299  93.8644 266.2497 15.08825972 94839,6917.923,95.438,540.687,538.89,0.0
54081.0,STARLINK-5165,PAYLOAD,2024-07-08 09:44:25,15.08836642,0.0001545,53.2181,189.2548,98.3351,261.7816,-0.00011886,-2.179e-05,0.0,0 STARLINK-5165,1 54081U 22136AG  24190.40584519 -.00002179  00000-0 -11886-3 0  9992,2 54081  53.2181 189.2548 0001545  98.3351 261.7816 15.08836642 95481,6917.891,95.438,540.824,538.687,0.0
54081.0,STARLINK-5165,PAYLOAD,2024-07-09 06:24:26,15.08826786,0.000133,53.2164,185.3899,83.1968,276.9175,0.00019894,2.879e-05,0.0,0 STARLINK-5165,1 54081U 22136AG  24191.26697182  .00002879  00000-0  19894-3 0  9990,2 54081  53.2164 185.3899 0001330  83.1968 276.9175 15.08826786 95132,6917.921,95.438,540.706,538.866,0.0
54081.0,STARLINK-5165,PAYLOAD,2024-07-10 04:39:50,15.08845352,0.000136,53.2155,181.2271,80.2227,279.8919,0.0002481,3.663e-05,0.0,0 STARLINK-5165,1 54081U 22136AG  24192.19432955  .00003663  00000-0  24810-3 0  9994,2 54081  53.2155 181.2271 0001360  80.2227 279.8919 15.08845352 95756,6917.864,95.437,540.67,538.788,0.0
54081.0,STARLINK-5165,PAYLOAD,2024-07-10 06:15:13,15.08846217,0.0001362,53.2155,180.9296,80.4244,279.6902,0.0002574,3.812e-05,0.0,0 STARLINK-5165,1 54081U 22136AG  24192.26056916  .00003812  00000-0  25740-3 0  9990,2 54081  53.2155 180.9296 0001362  80.4244 279.6902 15.08846217 95281,6917.861,95.437,540.669,538.784,0.0
54081.0,STARLINK-5165,PAYLOAD,2024-07-10 15:47:31,15.08846291,0.0001371,53.2154,179.1454,79.9551,280.1596,0.00020313,2.947e-05,0.0,0 STARLINK-5165,1 54081U 22136AG  24192.65800807  .00002947  00000-0  20313-3 0  9998,2 54081  53.2154 179.1454 0001371  79.9551 280.1596 15.08846291 95345,6917.861,95.437,540.675,538.778,0.0
54081.0,STARLINK-5165,PAYLOAD,2024-07-11 07:41:22,15.08851019,0.0001435,53.2161,176.1723,81.7584,278.357,0.00015842,2.235e-05,0.0,0 STARLINK-5165,1 54081U 22136AG  24193.32040269  .00002235  00000-0  15842-3 0  9992,2 54081  53.2161 176.1723 0001435  81.7584 278.3570 15.08851019 95443,6917.847,95.437,540.704,538.719,0.0
54081.0,STARLINK-5165,PAYLOAD,2024-07-12 04:21:23,15.08844199,0.0001479,53.2167,172.308,87.7228,272.3933,-1.3004e-05,-4.95e-06,0.0,0 STARLINK-5165,1 54081U 22136AG  24194.18152321 -.00000495  00000-0 -13004-4 0  9997,2 54081  53.2167 172.3080 0001479  87.7228 272.3933 15.08844199 96058,6917.868,95.437,540.756,538.709,0.0
54081.0,STARLINK-5165,PAYLOAD,2024-07-12 07:32:09,15.08847088,0.0001469,53.2171,171.7134,88.6547,271.4613,5.0728e-05,5.2e-06,0.0,0 STARLINK-5165,1 54081U 22136AG  24194.31400428  .00000520  00000-0  50728-4 0  9997,2 54081  53.2171 171.7134 0001469  88.6547 271.4613 15.08847088 95592,6917.859,95.437,540.74,538.707,0.0
54081.0,STARLINK-5165,PAYLOAD,2024-07-13 04:12:11,15.08832406,0.0001668,53.2186,167.8469,100.0279,260.0901,5.5401e-05,5.94e-06,0.0,0 STARLINK-5165,1 54081U 22136AG  24195.17513295  .00000594  00000-0  55401-4 0  9993,2 54081  53.2186 167.8469 0001668 100.0279 260.0901 15.08832406 96208,6917.904,95.438,540.923,538.615,0.0
54081.0,STARLINK-5165,PAYLOAD,2024-07-13 07:22:57,15.08840468,0.0001536,53.2172,167.2473,100.9462,259.1703,-5.6701e-05,-1.19e-05,0.0,0 STARLINK-5165,1 54081U 22136AG  24195.30761051 -.00001190  00000-0 -56701-4 0  9992,2 54081  53.2172 167.2473 0001536 100.9462 259.1703 15.08840468 95743,6917.879,95.438,540.807,538.681,0.0
54081.0,STARLINK-5165,PAYLOAD,2024-07-13 21:41:25,15.08840503,0.0001392,53.2167,164.5706,93.3223,266.7929,7.5826e-05,9.19e-06,0.0,0 STARLINK-5165,1 54081U 22136AG  24195.90376838  .00000919  00000-0  75826-4 0  9998,2 54081  53.2167 164.5706 0001392  93.3223 266.7929 15.08840503 96314,6917.879,95.438,540.707,538.781,0.0
54081.0,STARLINK-5165,PAYLOAD,2024-07-14 04:02:57,15.08850465,0.0001352,53.216,163.3838,91.4114,268.7033,0.0001499,2.099e-05,0.0,0 STARLINK-5165,1 54081U 22136AG  24196.16871980  .00002099  00000-0  14990-3 0  9990,2 54081  53.2160 163.3838 0001352  91.4114 268.7033 15.08850465 96354,6917.848,95.437,540.649,538.778,0.0
54081.0,STARLINK-5165,PAYLOAD,2024-07-14 05:38:20,15.08852797,0.0001358,53.2164,163.0866,90.0886,270.0262,0.00016358,2.317e-05,0.0,0 STARLINK-5165,1 54081U 22136AG  24196.23495842  .00002317  00000-0  16358-3 0  9990,2 54081  53.2164 163.0866 0001358  90.0886 270.0262 15.08852797 95880,6917.841,95.437,540.646,538.767,0.0
54081.0,STARLINK-5165,PAYLOAD,2024-07-14 15:10:39,15.08843353,0.0001404,53.2162,161.2999,101.0009,259.1141,8.0017e-05,9.86e-06,0.0,0 STARLINK-5165,1 54081U 22136AG  24196.63240464  .00000986  00000-0  80017-4 0  9996,2 54081  53.2162 161.2999 0001404 101.0009 259.1141 15.08843353 96420,6917.87,95.437,540.706,538.764,0.0
54081.0,STARLINK-5165,PAYLOAD,2024-07-15 07:04:31,15.08843891,0.0001428,53.2168,158.3266,96.2781,263.8374,0.00012742,1.741e-05,0.0,0 STARLINK-5165,1 54081U 22136AG  24197.29480576  .00001741  00000-0  12742-3 0  9998,2 54081  53.2168 158.3266 0001428  96.2781 263.8374 15.08843891 96043,6917.868,95.437,540.721,538.746,0.0
54081.0,STARLINK-5165,PAYLOAD,2024-07-15 15:01:27,15.0884221,0.0001501,53.2155,156.8423,87.0439,273.0724,8.9853e-05,1.142e-05,0.0,0 STARLINK-5165,1 54081U 22136AG  24197.62600859  .00001142  00000-0  89853-4 0  9996,2 54081  53.2155 156.8423 0001501  87.0439 273.0724 15.08842210 96571,6917.874,95.437,540.777,538.7,0.0
54081.0,STARLINK-5165,PAYLOAD,2024-07-16 06:55:17,15.08853421,0.000147,53.2176,153.8656,99.3385,260.7773,-4.9438e-06,-3.67e-06,0.0,0 STARLINK-5165,1 54081U 22136AG  24198.28840054 -.00000367  00000-0 -49438-5 0  9998,2 54081  53.2176 153.8656 0001470  99.3385 260.7773 15.08853421 96674,6917.839,95.437,540.721,538.687,0.0
54081.0,STARLINK-5165,PAYLOAD,2024-07-17 03:35:18,15.08848129,0.000154,53.2167,149.9993,98.7791,261.3376,0.00017244,2.458e-05,0.0,0 STARLINK-5165,1 54081U 22136AG  24199.14952188  .00002458  00000-0  17244-3 0  9995,2 54081  53.2167 149.9993 0001540  98.7791 261.3376 15.08848129 96806,6917.856,95.437,540.786,538.655,0.0
54081.0,STARLINK-5165,PAYLOAD,2024-07-17 06:46:04,15.08850564,0.0001496,53.2166,149.4051,100.1139,260.0022,0.00018569,2.669e-05,0.0,0 STARLINK-5165,1 54081U 22136AG  24199.28199965  .00002669  00000-0  18569-3 0  9991,2 54081  53.2166 149.4051 0001496 100.1139 260.0022 15.08850564 96348,6917.848,95.437,540.748,538.678,0.0
54081.0,STARLINK-5165,PAYLOAD,2024-07-18 03:26:06,15.0883458,0.0001628,53.2168,145.5394,107.2845,252.8325,-4.8734e-05,-1.063e-05,0.0,0 STARLINK-5165,1 54081U 22136AG  24200.14313058 -.00001063  00000-0 -48734-4 0  9997,2 54081  53.2168 145.5394 0001628 107.2845 252.8325 15.08834580 96958,6917.897,95.438,540.888,538.636,0.0
54081.0,STARLINK-5165,PAYLOAD,2024-07-18 12:58:25,15.08837976,0.0001519,53.2174,143.7585,93.4948,266.6218,-6.9608e-06,-3.99e-06,0.0,0 STARLINK-5165,1 54081U 22136AG  24200.54057043 -.00000399  00000-0 -69608-5 0  9995,2 54081  53.2174 143.7585 0001519  93.4948 266.6218 15.08837976 96536,6917.887,95.438,540.802,538.701,0.0
54081.0,STARLINK-5165,PAYLOAD,2024-07-19 12:49:12,15.0883988,0.0001566,53.2175,139.3033,97.7895,262.3275,7.1859e-05,8.56e-06,0.0,0 STARLINK-5165,1 54081U 22136AG  24201.53417409  .00000856  00000-0  71859-4 0  9997,2 54081  53.2175 139.3033 0001566  97.7895 262.3275 15.08839880 97168,6917.881,95.438,540.829,538.662,0.0
